SCHOOL_NAME,ADDRESS,POSTAL_CODE,WARD,WEBSITE,PHONE_NUMBER,FAX_NUMBER,EMAIL_ADDRESS,GRADE_LEVEL,PROGRAMS,AB_SCHOOL_NUMBER,GRADES_OFFERED,LATITUDE,LONGITUDE,LOCATION
Abbott,12045 34 Street NW,T5W1Z5,D,http://abbott.epsb.ca,7804777310,7804715281,abbott@epsb.ca,Elementary,"Regular Program (K-6), Strategies (2-6)",7100,Kindergarten to Grade 6,53.574607399999998,-113.3936641,"(53.5746074, -113.3936641)"
A. Blair McPherson,430 Tamarack Green NW,T6T0J4,G,http://ablairmcpherson.epsb.ca,7804684361,7804684396,ablairmcpherson@epsb.ca,"Elementary, Junior",Regular Program (K-9),1458,Kindergarten to Grade 9,53.469872000000002,-113.362193,"(53.469872, -113.362193)"
Academy at King Edward,8525 101 Street NW,T6E3Z4,G,http://kingedward.epsb.ca,7804391368,7804398432,academy@epsb.ca,"Elementary, Junior, Senior",Strategies (2-12),18,Grade 2 to Grade 12,53.521497099999998,-113.4912456,"(53.5214971, -113.4912456)"
Afton,16604 91 Avenue NW,T5R5A4,C,http://afton.epsb.ca,7804843263,7804861791,afton@epsb.ca,Elementary,Arts Core (K-6),7192,Kindergarten to Grade 6,53.526130899999998,-113.6074899,"(53.5261309, -113.6074899)"
Alberta School for the Deaf,6240 113 Street NW,T6H3L2,F,http://asd.epsb.ca,7804393323,7804360385,abschdeaf@epsb.ca,"Elementary, Junior, Senior","American Sign Language Bilingual (1-12), Deaf or Hard of Hearing (1-12)",7730,Grade 1 to Grade 12,53.500921699999999,-113.52341079999999,"(53.5009217, -113.5234108)"
Aldergrove,8525 182 Street NW,T5T1X1,E,http://aldergrove.epsb.ca,7804875182,7804812166,aldergrove@epsb.ca,Elementary,"Regular Program (K-6), Behaviour & Learning Assistance (1-6)",7234,Kindergarten to Grade 6,53.519264,-113.63694769999999,"(53.519264, -113.6369477)"
Allendale,6415 106 Street NW,T6H2V5,F,http://allendale.epsb.ca,7804346756,7809888693,allendale@epsb.ca,Junior,"Regular Program (7-9), Cogito (7-9), German Bilingual (7-9), Interactions (7-9)",7500,Grade 7 to Grade 9,53.501204600000001,-113.5043896,"(53.5012046, -113.5043896)"
amiskwaciy Academy,101 Airport Road NW,T5G3K2,D,http://amiskwaciy.epsb.ca,7804241270,7804241284,amiskwaciy@epsb.ca,"Junior, Senior",amiskwaciy Academy (7-12),484,Grade 7 to Grade 12,53.568830800000001,-113.52135509999999,"(53.5688308, -113.5213551)"
Argyll Centre,6859 100 Avenue NW,T6A0G3,G,http://argyll.epsb.ca,7804651299,7804651328,agryll@epsb.ca,"Elementary, Junior, Senior","Caraway (K-9), LearnNet (1-12)",349,Kindergarten to Grade 12,53.539950179999998,-113.4345284,"(53.53995018, -113.4345284)"
Athlone,12940 129 Street NW,T5L1J3,A,http://athlone.epsb.ca,7804555823,7804556469,athlone@epsb.ca,Elementary,"Regular Program (K-6), Behaviour & Learning Assistance (1-6)",7104,Kindergarten to Grade 6,53.588071100000001,-113.5442717,"(53.5880711, -113.5442717)"
Avalon,5425 114 Street NW,T6H3M1,F,http://avalon.epsb.ca,7804348402,7804357623,avalon@epsb.ca,Junior,"Regular Program (7-9), Behaviour and Learning Assistance (7-9), French Immersion (7-9)",7550,Grade 7 to Grade 9,53.491482499999996,-113.52460309999999,"(53.4914825, -113.5246031)"
Avonmore,7835 76 Avenue NW,T6C2N1,G,http://avonmore.epsb.ca,7804662976,7804653614,avonmore@epsb.ca,"Elementary, Junior","Regular Program (K-6), Community Learning Skills (1-6), Community Learning Skills/Behaviour & Learning Assistance (1-6), Nellie McClung (7-9)",7501,Kindergarten to Grade 6,53.512255099999997,-113.44928419999999,"(53.5122551, -113.4492842)"
Balwin,7055 132 Avenue NW,T5C2A7,B,http://balwin.epsb.ca,7804753646,7804789889,balwin@epsb.ca,"Elementary, Junior","Regular Program (K-9), Early Learning (Ages 3.5-4.5), Interactions (7-9), Literacy (7-9), Opportunity (1-9), Transition Centre (K-9)",7502,Kindergarten to Grade 9,53.592244999999998,-113.4506246,"(53.592245, -113.4506246)"
Bannerman,14112 23 Street NW,T5Y2B9,B,http://bannerman.epsb.ca,7804787706,7804578090,bannerman@epsb.ca,"Elementary, Junior","Regular Program (K-6), Nellie McClung (7-9), Strategies (4-6)",7253,Kindergarten to Grade 6,53.604792799999998,-113.3778348,"(53.6047928, -113.3778348)"
Baturyn,10603 172 Avenue NW,T5X4X4,A,http://baturyn.epsb.ca,7804566727,7804574337,baturyn@epsb.ca,Elementary,"Regular Program (K-6), Strategies (4-6)",7247,Kindergarten to Grade 6,53.633422099999997,-113.506254,"(53.6334221, -113.506254)"
Beacon Heights,4610 121 Avenue NW,T5W1M8,D,http://beaconheights.epsb.ca,7804794038,7804710896,beacon@epsb.ca,Elementary,"Regular Program (K-6), Early Education (Ages 2.5-4.5)",7106,Kindergarten to Grade 6,53.575100399999997,-113.4114756,"(53.5751004, -113.4114756)"
Belgravia,11605 74 Avenue NW,T6G0G1,F,http://belgravia.epsb.ca,7804355560,7804369137,belgravia@epsb.ca,Elementary,Regular Program (K-6),7107,Kindergarten to Grade 6,53.510350600000002,-113.5314501,"(53.5103506, -113.5314501)"
Belmead,9011 182 Street NW,T5T2Y9,E,http://belmead.epsb.ca,7804813314,7804878189,belmead@epsb.ca,Elementary,"Regular Program (K-6), Interactions (1-6)",7236,Kindergarten to Grade 6,53.525109399999998,-113.6386863,"(53.5251094, -113.6386863)"
Belmont,3310 132A Avenue NW,T5A3T1,B,http://belmont.epsb.ca,7804769590,7804480371,belmont@epsb.ca,Elementary,"Regular Program (K-6), Logos Christian (K-6)",7228,Kindergarten to Grade 6,53.592847900000002,-113.3931517,"(53.5928479, -113.3931517)"
Belvedere,13359 62 Street NW,T5A0V5,B,http://belvedere.epsb.ca,7804762022,7804784088,belvedere@epsb.ca,Elementary,Regular Program (K-6),7109,Kindergarten to Grade 6,53.594809300000001,-113.4366618,"(53.5948093, -113.4366618)"
Bessie Nichols,189 Hemingway Road NW,T6M2Z7,E,http://bessienichols.epsb.ca,7804441922,7804810726,bessienichols@epsb.ca,"Elementary, Junior",Regular Program (K-9),1577,Kindergarten to Grade 9,53.487096800000003,-113.6717167,"(53.4870968, -113.6717167)"
Bisset,3020 37 Street NW,T6L5X1,I,http://bisset.epsb.ca,7804506536,7804611703,bisset@epsb.ca,Elementary,Regular Program (K-6),7276,Kindergarten to Grade 6,53.460382600000003,-113.39800099999999,"(53.4603826, -113.398001)"
Braemar,9359 67A Street NW,T6B1R7,G,http://braemar.epsb.ca,7804683000,7804684949,braemar@epsb.ca,"Junior, Senior",Pregnant & Parenting Teens (7-12),7704,Special,53.530954000000001,-113.4314571,"(53.530954, -113.4314571)"
Brander Gardens,14865 56 Avenue NW,T6H5G2,F,http://brandergardens.epsb.ca,7804366740,7804480359,brander@epsb.ca,Elementary,"Regular Program (K-6), French Immersion (K-6)",7226,Kindergarten to Grade 6,53.493484000000002,-113.577079,"(53.493484, -113.577079)"
Brightview,15425 106 Avenue NW,T5P0W3,C,http://brightview.epsb.ca,7804846631,7804893802,brightview@epsb.ca,Elementary,"Regular Program (K-6), Behaviour & Learning Assistance (1-6), Opportunity (1-6)",7504,Kindergarten to Grade 6,53.549499300000001,-113.58728410000001,"(53.5494993, -113.5872841)"
Britannia,16018 104 Avenue NW,T5P0S3,C,http://britannia.epsb.ca,7804895300,7804846101,britannia@epsb.ca,Junior,"Regular Program (7-9), Behaviour & Learning Assistance (7-9), Community Learning Skills (7-9), Logos Christian (7-9)",7551,Grade 7 to Grade 9,53.546425599999999,-113.59778009999999,"(53.5464256, -113.5977801)"
Brookside,5504 143 Street NW,T6H4E5,F,http://brookside.epsb.ca,7804340464,7804396731,brookside@epsb.ca,Elementary,Regular Program (K-6),7146,Kindergarten to Grade 6,53.493226200000002,-113.5667897,"(53.4932262, -113.5667897)"
Caernarvon,14820 118 Street NW,T5X1T4,A,http://caernarvon.epsb.ca,7804567020,7804783443,caernarvon@epsb.ca,Elementary,"Regular Program (K-6), Chinese (Mandarin) Bilingual (K-6), Early Learning (Ages 3.5-4.5)",7225,Kindergarten to Grade 6,53.610415199999998,-113.5258527,"(53.6104152, -113.5258527)"
Calder,12950 118 Street NW,T5E5L2,A,http://calder.epsb.ca,7804544313,7804514272,calder@epsb.ca,Elementary,"Regular Program (K-6), Arabic Bilingual (K-1), Behaviour & Learning Assistance (1-6)",7113,Kindergarten to Grade 6,53.589311700000003,-113.5251349,"(53.5893117, -113.5251349)"
Callingwood,17335 76 Avenue NW,T5T2B1,E,http://callingwood.epsb.ca,7804870727,7804814917,callingwood@epsb.ca,Elementary,"Regular Program (K-6), Behaviour & Learning Assistance (1-6)",7237,Kindergarten to Grade 6,53.509121299999997,-113.6229649,"(53.5091213, -113.6229649)"
Centennial,17420 57 Avenue NW,T6M1K4,E,http://centennial.epsb.ca,7804815590,7804879934,centennial@epsb.ca,Elementary,Regular Program (K-6),7260,Kindergarten to Grade 6,53.492940400000002,-113.62353,"(53.4929404, -113.62353)"
Centre for Education,1 Kingsway NW,T5H4G9,D,http://epsb.ca,7804298000,7804298318,info@epsb.ca,Administration,Administration for Edmonton Public Schools,,,53.555050000000001,-113.49628,"(53.55505, -113.49628)"
Centre High,"#200, 10310 102 Avenue NW",T5J5A2,F,http://centrehigh.epsb.ca,7804256753,7809178686,centrehigh@epsb.ca,Senior,Programming for 4th and 5th year high school students,17,Special,53.543007699999997,-113.4975915,"(53.5430077, -113.4975915)"
Clara Tyner,9420 Ottewell Road NW,T6B2E2,G,http://claratyner.epsb.ca,7804695339,7804685110,claratyner@epsb.ca,Elementary,Regular Program (K-6),7193,Kindergarten to Grade 6,53.532615399999997,-113.435817,"(53.5326154, -113.435817)"
Coronation,10925 139 Street NW,T5M1P8,C,http://coronation.epsb.ca,7804552008,7804558717,coronation@epsb.ca,Elementary,"Regular Program (K-6), International Baccalareate Primary Years (K-6)",7115,Kindergarten to Grade 6,53.5552858,-113.5613474,"(53.5552858, -113.5613474)"
Crawford Plains,4210 12 Avenue NW,T6L5V6,I,http://crawford.epsb.ca,7804637211,7804635844,crawfordplains@epsb.ca,Elementary,"Regular Program (K-6), Interactions (1-3)",7263,Kindergarten to Grade 6,53.440309999999997,-113.4059932,"(53.44031, -113.4059932)"
Crestwood,9735 144 Street NW,T5N2T3,C,http://crestwood.epsb.ca,7804524525,7804510294,crestwood@epsb.ca,"Elementary, Junior","Regular Program (K-9), Academic Alternative (7-9), Challenge (7-9)",7503,Kindergarten to Grade 9,53.533307100000002,-113.57084639999999,"(53.5333071, -113.5708464)"
Daly Grove,1888 37 Street NW,T6L2R2,I,http://dalygrove.epsb.ca,7804501532,7804614719,dalygrove@epsb.ca,Elementary,Regular Program (K-6),7264,Kindergarten to Grade 6,53.450099100000003,-113.3990424,"(53.4500991, -113.3990424)"
Dan Knott,1434 80 Street NW,T6K2C6,I,http://danknott.epsb.ca,7804627954,7804611841,danknott@epsb.ca,Junior,"Regular Program (7-9), Literacy (7-9), Pre-Advanced Placement (7-9), Strategies (7-9)",7563,Grade 7 to Grade 9,53.445610799999997,-113.4534994,"(53.4456108, -113.4534994)"
Delton,12126 89 Street NW,T5B3W4,D,http://delton.epsb.ca,7804778742,7804797553,delton@epsb.ca,Elementary,"Regular Program (K-6), Behaviour & Learning Assistance (1-3), Early Learning (Ages 3.5-4.5), Opportunity (1-6)",7118,Kindergarten to Grade 6,53.575560400000001,-113.47799139999999,"(53.5755604, -113.4779914)"
Delwood,7315 Delwood Road NW,T5C3A9,B,http://delwood.epsb.ca,7804763969,7804781586,delwood@epsb.ca,Elementary,"Regular Program (K-6), French Immersion (K-6), Opportunity (1-6)",7194,Kindergarten to Grade 6,53.596816400000002,-113.4541595,"(53.5968164, -113.4541595)"
Dickinsfield,14320 88A Street NW,T5E6B6,A,http://dickinsfield.epsb.ca,7804764646,7804734295,dickinsfield@epsb.ca,Junior,"Regular Program (7-9), Behaviour & Learning Assistance (7-9), French Immersion (7-9), Literacy (7-9), Strategies (7-9)",7559,Grade 7 to Grade 9,53.605252900000004,-113.4765424,"(53.6052529, -113.4765424)"
Donnan,7803 87 Street NW,T6C3G6,G,http://donnan.epsb.ca,7804668573,7804624932,donnan@epsb.ca,"Elementary, Junior","Regular Program (K-6), Sports Alternative (3-6)",7505,Kindergarten to Grade 3,53.5142314,-113.46131870000001,"(53.5142314, -113.4613187)"
Dovercourt,13910 122 Avenue NW,T5L2W3,C,http://dovercourt.epsb.ca,7804556171,7804558203,dovercourt@epsb.ca,Elementary,"Regular Program (K-6), Chinese (Mandarin) Bilingual (K-6)",7121,Kindergarten to Grade 6,53.573316800000001,-113.5613362,"(53.5733168, -113.5613362)"
Dr. Donald Massey,5435 162 Avenue NW,T5Y0E8,B,http://donaldmassey.epsb.ca,7804575435,7804575447,donaldmassey@epsb.ca,"Elementary, Junior",Regular Program (K-9),1456,Kindergarten to Grade 9,53.623668199999997,-113.4220116,"(53.6236682, -113.4220116)"
D. S. MacKenzie,4020 106 Street NW,T6J1A6,H,http://dsmackenzie.epsb.ca,7804389103,7804389146,dsmackenzie@epsb.ca,Junior,"Regular Program (7-9), Behaviour & Learning Assistance (7-9), Challenge (7-9), Strategies (7-9)",7522,Grade 7 to Grade 9,53.475980700000001,-113.5050572,"(53.4759807, -113.5050572)"
Duggan,10616 36A Avenue NW,T6J0C9,H,http://duggan.epsb.ca,7804340319,7804343731,duggan@epsb.ca,Elementary,"Regular Program (K-6), Strategies (2-6)",7218,Kindergarten to Grade 6,53.471214500000002,-113.5059641,"(53.4712145, -113.5059641)"
Dunluce,11735 162 Avenue NW,T5X4M6,A,http://dunluce.epsb.ca,7804569080,7804566667,dunluce@epsb.ca,Elementary,"Regular Program (K-6), French Immersion (K-6)",7246,Kindergarten to Grade 6,53.622763999999997,-113.52682849999999,"(53.622764, -113.5268285)"
Earl Buxton,250 Rhatigan Road East NW,T6R2H7,F,http://earlbuxton.epsb.ca,7804351577,7804350178,earlbuxton@epsb.ca,Elementary,Regular Program (K-6),7278,Kindergarten to Grade 6,53.474297900000003,-113.5817772,"(53.4742979, -113.5817772)"
Eastglen,11430 68 Street NW,T5B1P1,D,http://eastglen.epsb.ca,7804791991,7804743154,eastglen@epsb.ca,Senior,"Regular Program (10-12), Advanced Placement (10-12), Community Learning Skills (10-12), Interactions (10-12)",7051,Grade 10 to Grade 12,53.568292499999998,-113.445155,"(53.5682925, -113.445155)"
Edith Rogers,8308 Mill Woods Road NW,T6K1Y7,I,http://edithrogers.epsb.ca,7804623310,7804623298,edithrogers@epsb.ca,Junior,"Regular Program (7-9), Behaviour & Learning Assistance (7-9), Cogito (7-9), Literacy (7-9), Opportunity (7-9), Strategies (7-9)",7561,Grade 7 to Grade 9,53.474269999999997,-113.45618,"(53.47427, -113.45618)"
Edmonton Christian High,14304 109 Avenue NW,T5N1H6,C,http://www.edmchristian.org,7804087945,7804540793,ecshs@epsb.ca,Senior,"Advanced Placement, (10-12), Faith Based (10-12)",7905,Grade 10 to Grade 12,53.554181999999997,-113.56772220000001,"(53.554182, -113.5677222)"
Edmonton Christian Northeast,5940 159 Avenue NW,T5Y0J5,B,http://www.edmchristian.org,7804087942,7804781728,ecsne@epsb.ca,"Elementary, Junior",Faith Based (K-9),1282,Kindergarten to Grade 9,53.619940800000002,-113.4329669,"(53.6199408, -113.4329669)"
Edmonton Christian West,14345 McQueen Road NW,T5N3L5,C,http://www.edmchristian.org,7804087948,7804525669,ecswest@epsb.ca,"Elementary, Junior",Faith Based (K-9),1283,Kindergarten to Grade 9,53.556214400000002,-113.56683529999999,"(53.5562144, -113.5668353)"
Ekota,1395 Knottwood Road East NW,T6K2P5,I,http://ekota.epsb.ca,7804625112,7804625016,ekota@epsb.ca,Elementary,"Regular Program (K-6), Early Learning (Ages 3.5 - 4.5), Strategies (2-6)",7233,Kindergarten to Grade 6,53.447839899999998,-113.4410639,"(53.4478399, -113.4410639)"
Elizabeth Finch,13815 160 Avenue NW,T6V0C9,A,http://elizabethfinch.epsb.ca,7804572022,7804572054,elizabethfinch@epsb.ca,"Elementary, Junior",Regular Program (K-9),1459,Kindergarten to Grade 9,53.621327999999998,-113.555632,"(53.621328, -113.555632)"
Ellerslie Campus ,521 66 Street SW,T6X1A3,I,http://ellerslie.epsb.ca,7809885556,7809888073,ellerslie@epsb.ca,"Elementary, Junior",Regular Program (K-9),7565,Kindergarten to Grade 9,53.4256539,-113.4426902,"(53.4256539, -113.4426902)"
Elmwood,16325 83 Avenue NW,T5R3V8,E,http://elmwood.epsb.ca,7804896749,7804444125,elmwood@epsb.ca,Elementary,"Early Education (Ages 2.5 - 4.5), Individual Support (1-6), Science Alternative (K-6)",7204,Kindergarten to Grade 6,53.516842400000002,-113.6045737,"(53.5168424, -113.6045737)"
Esther Starkman,2717 Terwillegar Way NW,T6R0G5,H,http://estherstarkman.epsb.ca,7804392717,7804392748,estherstarkman@epsb.ca,"Elementary, Junior",Regular Program (K-9),1460,Kindergarten to Grade 9,53.444951099999997,-113.5735076,"(53.4449511, -113.5735076)"
Evansdale,9303 150 Avenue NW,T5E2N7,A,http://evansdale.epsb.ca,7804763331,7804737013,evansdale@epsb.ca,Elementary,"Regular Program (K-6), Behaviour & Learning Assistance (2-6), Early Education (Ages 2.5 - 4.5)",7215,Kindergarten to Grade 6,53.611019200000001,-113.4835866,"(53.6110192, -113.4835866)"
Florence Hallock,16437 87 Street NW,T5Z3X1,A,http://florencehallock.epsb.ca,7804781410,7804781481,florencehallock@epsb.ca,"Elementary, Junior",Regular Program (K-9),1457,Kindergarten to Grade 9,53.627201999999997,-113.474728,"(53.627202, -113.474728)"
Forest Heights,10304 81 Street NW,T6A3X4,G,http://forestheights.epsb.ca,7804660312,7804698243,forest@epsb.ca,Elementary,"Regular Program (K-6), German Bilingual (K-6)",7123,Kindergarten to Grade 6,53.546070499999999,-113.4525005,"(53.5460705, -113.4525005)"
Fraser,14904 21 Street NW,T5Y2L6,B,http://fraser.epsb.ca,7804720131,7804780781,fraser@epsb.ca,Elementary,"Regular Program (K-6), Interactions (K-3)",7273,Kindergarten to Grade 6,53.611995299999997,-113.3720321,"(53.6119953, -113.3720321)"
Garneau,10925 87 Avenue NW,T6G0X4,F,http://garneau.epsb.ca,7804331390,7804395184,garneau@epsb.ca,Elementary,"Regular Program (K-6), Child Study Centre (K-6)",7509,Kindergarten to Grade 6,53.5228714,-113.5127885,"(53.5228714, -113.5127885)"
George H. Luck,300 Bulyea Road NW,T6R2L4,F,http://gluck.epsb.ca,7804385011,7804306047,georgehluck@epsb.ca,Elementary,Regular Program (K-6),7279,Kindergarten to Grade 6,53.473452399999999,-113.5714021,"(53.4734524, -113.5714021)"
George P. Nicholson,1120 113 Street NW,T6J7J4,H,http://georgepnicholson.epsb.ca,7804399314,7804399356,georgepnicholson@epsb.ca,Elementary,Regular Program (K-6),1004,Kindergarten to Grade 6,53.442440099999999,-113.5247775,"(53.4424401, -113.5247775)"
Glendale,9812 161 Street NW,T5P3H4,C,http://glendale.epsb.ca,7804894300,7804894630,glendale@epsb.ca,Elementary,"Regular Program (K-6), Interactions (1-6)",7205,Kindergarten to Grade 6,53.536378399999997,-113.59912919999999,"(53.5363784, -113.5991292)"
Glengarry,9211 135 Avenue NW,T5E1N7,A,http://glengarry.epsb.ca,7804765373,7804733824,glengarry@epsb.ca,Elementary,Arabic Bilingual (K-6),7184,Kindergarten to Grade 6,53.596778,-113.48521220000001,"(53.596778, -113.4852122)"
Glenora,13520 102 Avenue NW,T5N0N7,C,http://glenora.epsb.ca,7804524740,7804523151,glenora@epsb.ca,Elementary,"Regular Program (K-5), International Baccalaureate Middle Years (6)",7126,Kindergarten to Grade 6,53.543067999999998,-113.55541839999999,"(53.543068, -113.5554184)"
Gold Bar,10524 46 Street NW,T6A1Y3,G,http://goldbar.epsb.ca,7804664116,7804480429,goldbar@epsb.ca,Elementary,"Regular Program (K-6), Behaviour & Learning Assistance (1-6)",7127,Kindergarten to Grade 6,53.549192900000001,-113.4127979,"(53.5491929, -113.4127979)"
Grace Martin,8210 36 Avenue NW,T6K0C7,I,http://gmartin.epsb.ca,7804627121,7804627131,gmartin@epsb.ca,Elementary,"Regular Program (K-6), Literacy (4-6), Opportunity (1-6), Sakinah Circle (K-6)",7220,Kindergarten to Grade 6,53.470001400000001,-113.4596365,"(53.4700014, -113.4596365)"
Grandview Heights,6225 127 Street NW,T6H3W8,F,http://grandview.epsb.ca,7804341502,7804367822,grandview@epsb.ca,"Elementary, Junior","Regular Program (1-9), Academic Alternative (7-9)",7128,Grade 1 to Grade 9,53.499319900000003,-113.5473417,"(53.4993199, -113.5473417)"
Greenfield,3735 114 Street NW,T6J2G6,H,http://greenfield.epsb.ca,7804348581,7804351303,greenfield@epsb.ca,Elementary,"Regular Program (K-6), French Immersion (K-6)",7178,Kindergarten to Grade 6,53.473643199999998,-113.52711720000001,"(53.4736432, -113.5271172)"
Greenview,5904 38 Avenue NW,T6L3P5,I,http://greenview.epsb.ca,7804620660,7804685260,greenview@epsb.ca,Elementary,"Regular Program (K-6), French Immersion (K-6)",7250,Kindergarten to Grade 6,53.473710699999998,-113.42932,"(53.4737107, -113.42932)"
Grovenor,10345 144 Street NW,T5N2V3,C,http://grovenor.epsb.ca,7804550832,7804471198,grovenor@epsb.ca,Elementary,"Regular Program (K-6), Behaviour & Learning Assistance (1-6)",7129,Kindergarten to Grade 6,53.545698399999999,-113.56916,"(53.5456984, -113.56916)"
Hardisty,10534 62 Street NW,T6A2M3,G,http://hardisty.epsb.ca,7804690426,7804692008,hardisty@epsb.ca,"Elementary, Junior","Regular Program (K-9), Individual Support (1-9), Interactions (7-9), Logos Christian (K-9)",7512,Kindergarten to Grade 9,53.548247099999998,-113.4282103,"(53.5482471, -113.4282103)"
Harry Ainlay,4350 111 Street NW,T6J1E8,H,http://ainlay.ca,7804132700,7804381465,hainlay@epsb.ca,Senior,"Regular Program (10-12), French Immersion (10-12), Interactions (10-12), International Baccalaureate Certificate (10-12), International Baccalaureate Diploma (10-12)",7059,Grade 10 to Grade 12,53.479376000000002,-113.51818799999999,"(53.479376, -113.518188)"
Hazeldean,6715 97 Street NW,T6E3J9,G,http://hazeldean.epsb.ca,7804337583,7804395404,hazeldean@epsb.ca,Elementary,"Regular Program (K-6), Early Education (Ages 2.5 to 4.5)",7132,Kindergarten to Grade 6,53.504045099999999,-113.4794594,"(53.5040451, -113.4794594)"
Highlands,11509 62 Street NW,T5W4C2,D,http://highlands.epsb.ca,7804794206,7804777238,highlands@epsb.ca,Junior,"Regular Program (7-9), Arts Core (7-9), Behaviour & Learning Assistance (7-9), Pre-Advanced Placement (7-9)",7513,Grade 7 to Grade 9,53.569660599999999,-113.43596669999999,"(53.5696606, -113.4359667)"
Hillcrest,16400 80 Avenue NW,T5R3M6,E,http://hillcrest.epsb.ca,7804892516,7804442642,hillcrest@epsb.ca,Junior,"Regular Program (7-9), Literacy (7-9), Opportunity (7-9)",7552,Grade 7 to Grade 9,53.513756800000003,-113.6060044,"(53.5137568, -113.6060044)"
Hillview,355 Woodvale Road East NW,T6L5C3,I,http://hillview.epsb.ca,7804638108,7804625222,hillview@epsb.ca,Elementary,"Regular Program (K-6), Early Education (Ages 2.5 to 4.5)",7255,Kindergarten to Grade 6,53.468239699999998,-113.4251154,"(53.4682397, -113.4251154)"
Holyrood,7920 94 Avenue NW,T6C1W5,G,http://holyrood.epsb.ca,7804662292,7804681044,holyrood@epsb.ca,Elementary,"Regular Program (K-6), French Immersion (K-6)",7514,Kindergarten to Grade 6,53.530498000000001,-113.44868200000001,"(53.530498, -113.448682)"
Homesteader,4455 128 Avenue NW,T5A3M9,B,http://homesteader.epsb.ca,7804781139,7804576945,homestead@epsb.ca,Elementary,"Regular Program (K-6), Early Education (Ages 2.5 to 4.5)",7240,Kindergarten to Grade 6,53.587933499999998,-113.41052639999999,"(53.5879335, -113.4105264)"
Horse Hill,19355 Meridian Street NE,T5Y6E5,B,http://horsehill.epsb.ca,7804726029,7804726254,horsehill@epsb.ca,Elementary,Regular Program (K-6),7567,Kindergarten to Grade 6,53.657708800000002,-113.3442962,"(53.6577088, -113.3442962)"
Inglewood,11515 127 Street NW,T5M0V4,C,http://inglewood.epsb.ca,7804554673,7804533384,inglewood@epsb.ca,Elementary,Regular Program (K-6),7136,Kindergarten to Grade 6,53.565500900000004,-113.54114850000001,"(53.5655009, -113.5411485)"
Jackson Heights,311 Jackson Road NW,T6L7H2,G,http://jacksonheights.epsb.ca,7804659797,7804659796,jacksonheights@epsb.ca,Elementary,"Regular Program (K-6), Interactions (1-6)",1003,Kindergarten to Grade 6,53.484033599999997,-113.4089927,"(53.4840336, -113.4089927)"
J. A. Fife,15004 76 Street NW,T5C1C2,B,http://jafife.epsb.ca,7804760775,7804738258,jafife@epsb.ca,Elementary,"Regular Program (K-6), French Immersion (K-6), Literacy (4-6)",7188,Kindergarten to Grade 6,53.611950899999997,-113.4602053,"(53.6119509, -113.4602053)"
James Gibbons - Stratford,8945 153 Street NW,T5R1P1,C,http://jgibbons.epsb.ca,7804898020,7804894224,jgibbons@epsb.ca,Elementary,Traditional (K-6),7207,Kindergarten to Grade 6,53.522728800000003,-113.5850545,"(53.5227288, -113.5850545)"
Jasper Place,8950 163 Street NW,T5R2P2,C,http://jasperplace.epsb.ca,7804089000,7804861984,jasper@epsb.ca,"Junior, Senior","Regular Program (10-12), Advanced Placement (10-12), Interactions (10-12), International Baccalaureate Certificate (10-12), International Baccalaureate Diploma (10-12)",7071,Grade 10 to Grade 12,53.526089200000001,-113.60278099999999,"(53.5260892, -113.602781)"
John A. McDougall,10930 107 Street NW,T5H2Z4,D,http://johnamcdougall.epsb.ca,7804260205,7804254088,mcdougall@epsb.ca,Elementary,"Regular Program (K-6), Early Learning (Ages 3.5-4.5)",7521,Kindergarten to Grade 6,53.555266799999998,-113.5047732,"(53.5552668, -113.5047732)"
John Barnett,14840 72 Street NW,T5C3E5,B,http://johnbarnett.epsb.ca,7804781351,7804570055,jbarnett@epsb.ca,Elementary,Regular Program (K-6),7214,Kindergarten to Grade 6,53.6096121,-113.44910419999999,"(53.6096121, -113.4491042)"
John D. Bracco,3150 139 Avenue NW,T5Y2P7,B,http://johndbracco.epsb.ca,7804751760,7804764427,jdbracco@epsb.ca,Junior,"Regular Program (7-9), Behaviour & Learning Assistance/Opportunity (7-9), Opportunity (7-9), Pre-Advanced Placement (7-9)",7573,Grade 7 to Grade 9,53.602927999999999,-113.3918427,"(53.602928, -113.3918427)"
Johnny Bright,1331 Rutherford Road SW,T6W1P4,H,http://johnnybright.epsb.ca,7804371341,7804378048,johnnybright@epsb.ca,"Elementary, Junior",Regular Program (K-9),1455,Kindergarten to Grade 9,53.419142200000003,-113.536314,"(53.4191422, -113.536314)"
J. Percy Page,2707 Mill Woods Road NW,T6K4A6,I,http://jpercypage.epsb.ca,7804623322,7804627803,jpercypage@epsb.ca,Senior,"Regular Program (10-12), Advanced Placement (10-12), Individual Support (10-12)",7075,Grade 10 to Grade 12,53.475383000000001,-113.462284,"(53.475383, -113.462284)"
Julia Kiniski,4304 41 Avenue NW,T6L5Y6,G,http://juliakiniski.epsb.ca,7804624622,7804400925,jkiniski@epsb.ca,Elementary,"Regular Program (K-6), Behaviour & Learning Assistance (1-6)",7275,Kindergarten to Grade 6,53.476970600000001,-113.40673750000001,"(53.4769706, -113.4067375)"
Kameyosek,250 Lakewood Road East NW,T6K3L4,I,http://kameyosek.epsb.ca,7804628724,7804628755,kameyosek@epsb.ca,Elementary,"Regular Program (K-6), Cogito (K-3)",7239,Kindergarten to Grade 6,53.461091699999997,-113.4406663,"(53.4610917, -113.4406663)"
Kate Chegwin,3119 48 Street NW,T6L6P5,I,http://katechegwin.epsb.ca,7804690470,7804637844,kchegwin@epsb.ca,Junior,"Regular Program (7-9), Behaviour & Learning Assistance (7-9), Literacy (9), Pre-Advanced Placement (7-9), Strategies (7-8)",7574,Grade 7 to Grade 9,53.462306699999999,-113.416127,"(53.4623067, -113.416127)"
Keheewin,1910 105 Street NW,T6J5J8,H,http://keheewin.epsb.ca,7804383874,7804625906,keheewin@epsb.ca,Elementary,"Regular Program (K-6), Interactions (1-6)",7254,Kindergarten to Grade 6,53.448540800000004,-113.5013575,"(53.4485408, -113.5013575)"
Kenilworth,7005 89 Avenue NW,T6B0N3,G,http://kenilworth.epsb.ca,7804662104,7804689276,kenilworth@epsb.ca,Junior,"Regular Program (7-9), Behaviour & Learning Assistance (7-9), French Immersion (7-9), Literacy (7-9)",7546,Grade 7 to Grade 9,53.524257400000003,-113.4353483,"(53.5242574, -113.4353483)"
Kensington,13410 119 Street NW,T5E5N1,A,http://kensington.epsb.ca,7804551836,7804524249,kensington@epsb.ca,Elementary,"Regular Program (K-6), Behaviour & Learning Assistance (4-6), Literacy (4-6), Logos Christian (K-6)",7137,Kindergarten to Grade 6,53.595088699999998,-113.5268502,"(53.5950887, -113.5268502)"
Kildare,7525 144 Avenue NW,T5C2R8,B,http://kildare.epsb.ca,7804765675,7804728177,kildare@epsb.ca,Elementary,"Regular Program (K-6), Chinese (Mandarin) Bilingual (K-6)",7138,Kindergarten to Grade 6,53.606849400000002,-113.4570176,"(53.6068494, -113.4570176)"
Killarney,13110 91 Street NW,T5E3P6,A,http://killarney.epsb.ca,7804751737,7804755311,killarney@epsb.ca,Junior,"Regular Program (7-9), Arabic Bilingual (7-9), Behaviour & Learning Assistance (7-9), Community Learning Skills (7-9), Opportunity (7-9)",7516,Grade 7 to Grade 9,53.590871100000001,-113.4812752,"(53.5908711, -113.4812752)"
King Edward,8530 101 Street NW,T6E3Z5,G,http://kingedward.epsb.ca,7804392491,7804339364,kingedward@epsb.ca,Elementary,"Regular Program (K-6), Interactions (1-6)",7517,Kindergarten to Grade 6,53.521228499999999,-113.491287,"(53.5212285, -113.491287)"
Kirkness,610 Kirkness Road NW,T5Y2K4,B,http://kirkness.epsb.ca,7804735924,7804579798,kirkness@epsb.ca,Elementary,Regular Program (K-6),7262,Kindergarten to Grade 6,53.6107187,-113.3867388,"(53.6107187, -113.3867388)"
Lago Lindo,17303 95 Street NW,T5Z2Z1,A,http://lagolindo.epsb.ca,7804566980,7804562851,lagolindo@epsb.ca,Elementary,"Regular Program (K-6), Behaviour & Learning Assistance/Opportunity (4-6)",7277,Kindergarten to Grade 6,53.635598799999997,-113.4880804,"(53.6355988, -113.4880804)"
Lansdowne,12323 51 Avenue NW,T6H0M6,F,http://lansdowne.epsb.ca,7804343160,7804384566,lansdowne@epsb.ca,Elementary,Regular Program (K-6),7180,Kindergarten to Grade 6,53.488172599999999,-113.54374489999999,"(53.4881726, -113.5437449)"
LaPerle,18715 97A Avenue NW,T5T4C1,E,http://laperle.epsb.ca,7804831864,7804441871,laperle@epsb.ca,Elementary,"Regular Program (K-6), Strategies (3-6)",7267,Kindergarten to Grade 6,53.533633700000003,-113.6454473,"(53.5336337, -113.6454473)"
Lauderdale,10610 129 Avenue NW,T5E4V6,A,http://lauderdale.epsb.ca,7804758737,7804759133,lauderdale@epsb.ca,Elementary,"Regular Program (K-6), Opportunity (1-6)",7141,Kindergarten to Grade 6,53.587449200000002,-113.5024966,"(53.5874492, -113.5024966)"
Laurier Heights,8210 142 Street NW,T5R0L9,C,http://laurierheights.epsb.ca,7804835352,7804447432,laurierheights@epsb.ca,"Elementary, Junior","Regular Program (K-9), French Immersion (K-9)",7518,Kindergarten to Grade 9,53.516559100000002,-113.56571270000001,"(53.5165591, -113.5657127)"
Lawton,11602 40 Street NW,T5W2K6,D,http://lawton.epsb.ca,7804711052,7804713236,lawton@epsb.ca,Junior,"Regular Program (7-9), Literacy (7-9), Opportunity (7-9)",7519,Grade 7 to Grade 9,53.568620099999997,-113.4030494,"(53.5686201, -113.4030494)"
Learning Store at Blue Quill,284 Saddleback Road NW,T6J4R7,H,http://outreach.epsb.ca,7804130263,7804130264,learningstorebluequill@epsb.ca,Special,"The program serves students who are generally behind in their academics and have inconsistent attendance, as well as pregnant and parenting teens and fourth and fifth year high school students. ",7724,Special,53.461200699999999,-113.5275054,"(53.4612007, -113.5275054)"
McLeod,14807 59 Street NW,T5A1Y3,B,http://mcleod.epsb.ca,7804782927,7804762077,mcleod@epsb.ca,Elementary,Regular Program (K-6),7200,Kindergarten to Grade 6,53.610545600000002,-113.43192209999999,"(53.6105456, -113.4319221)"
Learning Store at Circle Square,#2014 Northgate Centre 9499 - 137 Avenue NW,T5E6K9,B,http://outreach.epsb.ca,7804573467,7804732533,learningstorecirclesquare@epsb.ca,Special,"The program serves students who are generally behind in their academics and have inconsistent attendance, as well as pregnant and parenting teens and fourth and fifth year high school students.",7723,Special,53.597738800000002,-113.48879909999999,"(53.5977388, -113.4887991)"
Learning Store Northgate,#2014 Northgate Centre 9499 - 137 Avenue NW,T5E6K9,B,http://outreach.epsb.ca,7804573467,7804732533,learningstorenorthgate@epsb.ca,Special,"The program serves students who are generally behind in their academics and have inconsistent attendance, as well as pregnant and parenting teens and fourth and fifth year high school students.",7722,Special,53.597738800000002,-113.48879909999999,"(53.5977388, -113.4887991)"
Learning Store on Whyte,10007 82 Avenue NW,T6E1Z2,G,http://outreach.epsb.ca,7804378119,7804378190,learningstorewhyte@epsb.ca,Special,"The program serves students who are generally behind in their academics and have inconsistent attendance, as well as pregnant and parenting teens and fourth and fifth year high school students. ",386,Special,53.518009499999998,-113.4888771,"(53.5180095, -113.4888771)"
Learning Store West Edmonton,9532 163 St NW,T5P 3M7,E,http://outreach.epsb.ca,7804438072,7804442564,learningstorewestedmonton@epsb.ca,Special,"The program serves students who are generally behind in their academics and have inconsistent attendance, as well as pregnant and parenting teens and fourth and fifth year high school students. ",1022,Special,53.532581999999998,-113.6027674,"(53.532582, -113.6027674)"
Lee Ridge,440 Millbourne Road East NW,T6K1Y8,I,http://leeridge.epsb.ca,7804623230,7804611074,leeridge@epsb.ca,Elementary,"Regular Program (K-6), Behaviour & Learning Assistance (1-6)",7224,Kindergarten to Grade 6,53.471096899999999,-113.44380839999999,"(53.4710969, -113.4438084)"
Lendrum,11330 54 Avenue NW,T6H0V7,F,http://lendrum.epsb.ca,7804343588,7804380628,lendrum@epsb.ca,Elementary,"Regular Program (K-6), French Immersion (K-1)",7185,Kindergarten to Grade 6,53.490634399999998,-113.5240144,"(53.4906344, -113.5240144)"
Lillian Osborne,2019 Leger Road NW,T6R0R9,H,http://lillianosborne.epsb.ca,7803912450,7803912470,lillianosborne@epsb.ca,Senior,"Regular Program (10-12), International Baccaulaureate Certificate (10-12), International Baccalaureate Diploma (10-12)",1344,Grade 10 to Grade 12,53.457538999999997,-113.579543,"(53.457539, -113.579543)"
Londonderry,7104 144 Avenue NW,T5C2R4,B,http://londonderry.epsb.ca,7804734560,7804722603,londonderry@epsb.ca,Junior,"Regular Program (7-9), Chinese (Mandarin) Bilingual (7-9), Pre-Advanced Placement (7-9), Opportunity (7-9)",7534,Grade 7 to Grade 9,53.605697599999999,-113.4497791,"(53.6056976, -113.4497791)"
Lorelei,16230 103 Street NW,T5X3A9,A,http://lorelei.epsb.ca,7804564488,7804569594,lorelei@epsb.ca,Elementary,"Regular Program (K-6), Interactions (K-6), Opportunity (1-6)",7242,Kindergarten to Grade 6,53.623107900000001,-113.5008316,"(53.6231079, -113.5008316)"
L. Y. Cairns,10510 45 Avenue NW,T6H0A1,F,http://lycairns.epsb.ca,7804349561,7804386133,lycairns@epsb.ca,"Junior, Senior","Opportunity (7-12), Transition Support (10-12)",7702,Grade 7 to Grade 12,53.4829729,-113.4989897,"(53.4829729, -113.4989897)"
Lymburn,18710 72 Avenue NW,T5T4E9,E,http://lymburn.epsb.ca,7804871777,7804871800,lymburn@epsb.ca,Elementary,"Regular Program (K-6), Interactions (1-6), Literacy (4-6)",7269,Kindergarten to Grade 6,53.505309500000003,-113.6467411,"(53.5053095, -113.6467411)"
Lynnwood,15451 84 Avenue NW,T5R3Y1,E,http://lynnwood.epsb.ca,7804894500,7804840720,lynnwood@epsb.ca,Elementary,"Regular Program (K-6), Challenge (1-6), Community Learning Skills (1-6), Community Learning Skills/Behaviour & Learning Assistance (1-6)",7208,Kindergarten to Grade 6,53.517128399999997,-113.58740330000001,"(53.5171284, -113.5874033)"
Major General Griesbach,304 Griesbach School Road NW,T5E6R8,A,http://majorgeneralgriesbach.epsb.ca,7804569482,7804565201,griesbach@epsb.c,"Elementary, Junior","Regular Program (K-9), Opportunity (1-9)",7575,Kindergarten to Grade 9,53.604969500000003,-113.49587699999999,"(53.6049695, -113.495877)"
Malcolm Tweddle,2340 Millbourne Road West NW,T6K1Y9,I,http://malcolmtweddle.epsb.ca,7804623270,7804624033,mtweddle@epsb.ca,Elementary,"Regular Program (K-6), Cogito (4-6)",7223,Kindergarten to Grade 6,53.477375500000001,-113.45823470000001,"(53.4773755, -113.4582347)"
Malmo,4716 115 Street NW,T6H3N8,F,http://malmo.epsb.ca,7804341362,7804385711,malmo@epsb.ca,Elementary,"Regular Program (K-6), Arabic Bilingual (K-6)",7186,Kindergarten to Grade 6,53.484791600000001,-113.5288214,"(53.4847916, -113.5288214)"
Mary Butterworth,16315 109 Street NW,T5X2R2,A,http://marybutterworth.epsb.ca,7804761480,7804787511,mbutterworth@epsb.ca,Junior,"Regular Program (7-9), Behaviour & Learning Assistance (7-9), Opportunity (7-9), Pre-Advanced Placement (7-9)",7572,Grade 7 to Grade 9,53.6243208,-113.5079715,"(53.6243208, -113.5079715)"
Mayfield,10950 159 Street NW,T5P3C1,C,http://mayfield.epsb.ca,7804895100,7804480492,mayfield@epsb.ca,Elementary,"Regular Program (K-6), Early Education (Ages 2.5-4.5)",7209,Kindergarten to Grade 6,53.554814800000003,-113.5944449,"(53.5548148, -113.5944449)"
McArthur,13535 134 Street NW,T5L1W3,A,http://mcarthur.epsb.ca,7804552728,7804533627,mcarthur@epsb.ca,Elementary,"Regular Program (K-6), Strategies (2-6)",7143,Kindergarten to Grade 6,53.596884899999999,-113.5519157,"(53.5968849, -113.5519157)"
McKee,10725 51 Avenue NW,T6H0L3,F,http://mckee.epsb.ca,7804357140,7804361405,mckee@epsb.ca,Elementary,"Regular Program (K-6), Behaviour & Learning Assistance (1-6)",7195,Kindergarten to Grade 6,53.488187199999999,-113.50903529999999,"(53.4881872, -113.5090353)"
McKernan,11330 76 Avenue NW,T6G0K1,F,http://mckernan.epsb.ca,7804354163,7804386049,mckernan@epsb.ca,"Elementary, Junior","Regular Program (K-9), Extensions (K-9), French Immersion (K-9), International Spanish Academy (7-9), Late French Immersion (7-9)",7523,Kindergarten to Grade 9,53.512261799999997,-113.5238312,"(53.5122618, -113.5238312)"
McNally,8440 105 Avenue NW,T6A1B6,G,http://mcnallyhigh.com,7804690442,7804655958,mcnally@epsb.ca,Senior,"Regular Program (10-12), Chinese (Mandarin) Bilingual (10-12), Community Learning Skills (10-12), Interactions (10-12), International Baccalaureate Certificate (10-12),  International Baccalaureate Diploma (10-12)",7058,Grade 10 to Grade 12,53.547963000000003,-113.4574349,"(53.547963, -113.4574349)"
Meadowlark,9150 160 Street NW,T5R2J2,C,http://meadowlark.epsb.ca,7804895200,7804848293,meadowlark@epsb.ca,Elementary,"Regular Program (K-6), Chinese (Mandarin) Bilingual (K-6)",7210,Kindergarten to Grade 6,53.525821700000002,-113.5946337,"(53.5258217, -113.5946337)"
Meadowlark Christian,9825 158 Street NW,T5P2X4,C,http://meadowlarkchristian.epsb.ca,7804836476,7804878992,meadowlarkchristian@epsb.ca,"Elementary, Junior",Faith Based (K-9),7931,Kindergarten to Grade 9,53.536518000000001,-113.5937916,"(53.536518, -113.5937916)"
Mee-Yah-Noh,9228 128A Avenue NW,T5E0J8,A,http://meeyahnoh.epsb.ca,7804751929,7804781069,meeyahnoh@epsb.ca,Elementary,"Regular Program (K-6), Community Learning Skills (1-6), Interactions (1-6)",7149,Kindergarten to Grade 6,53.5869687,-113.4830968,"(53.5869687, -113.4830968)"
M. E. LaZerte,6804 144 Avenue NW,T5C3C7,B,http://melazerte.com,7804089800,7804720058,melazerte@epsb.ca,Senior,"Regular Program (10-12), Chinese (Mandarin) Bilingual (10-12), Interactions (10-12), International Baccalareate Certificate (10-12), International Baccalareate Diploma (10-12)",7063,Grade 10 to Grade 12,53.605061200000002,-113.4467016,"(53.6050612, -113.4467016)"
Menisa,933 Knottwood Road South NW,T6K3Y9,I,http://menisa.epsb.ca,7804638474,7804615862,menisa@epsb.ca,Elementary,"Regular Program (K-6), Interactions (1-6)",7259,Kindergarten to Grade 6,53.4423216,-113.4488849,"(53.4423216, -113.4488849)"
Metro Continuing Education,8205 90 Avenue NW,T6C1N8,G,http://metrocontinuingeducation.ca,7804281111,7804281112,metro@epsb.ca,Senior,"Provides academics and enrichment programming for learners of all ages, Summer High School (see metrocontinuingeducation.ca for program descriptions)",7090,Grade 10 to Grade 12,53.5251649,-113.4550876,"(53.5251649, -113.4550876)"
Meyokumin,5703 19A Avenue NW,T6L4J8,I,http://meyokumin.epsb.ca,7804638409,7804686398,meyokumin@epsb.ca,Elementary,"Regular Program (K-6), Cogito (K-6)",7257,Kindergarten to Grade 6,53.450698199999998,-113.428163,"(53.4506982, -113.428163)"
Meyonohk,1850 Lakewood Road South NW,T6K3Y5,I,http://meyonohk.epsb.ca,7804637627,7804503669,meyonohk@epsb.ca,Elementary,"Regular Program (K-6), Chinese (Mandarin) Bilingual (K-6)",7249,Kindergarten to Grade 6,53.454419299999998,-113.4549592,"(53.4544193, -113.4549592)"
Michael A. Kostek,5303 190 Street NW,T6M2L2,E,http://makostek.epsb.ca,7804897277,7804819304,makostek@epsb.ca,Elementary,Regular Program (K-6),7281,Kindergarten to Grade 6,53.489668700000003,-113.6513786,"(53.4896687, -113.6513786)"
Michael Strembitsky,4110 Savaryn Drive SW,T6X0Z5,I,http://michaelstrembitsky.epsb.ca,7803923500,7803923499,michaelstrembitsky@epsb.ca,"Elementary, Junior",Regular Program (K-9),1578,Kindergarten to Grade 9,53.413718099999997,-113.4616832,"(53.4137181, -113.4616832)"
Mill Creek,9735 80 Avenue NW,T6E1S8,G,http://millcreek.epsb.ca,7804335746,7804397394,millcreek@epsb.ca,Elementary,International Spanish Academy (K-6),7150,Kindergarten to Grade 6,53.5160974,-113.480806,"(53.5160974, -113.480806)"
Millwoods Christian,8704 Mill Woods Road NW,T6K3J3,I,http://millwoodschristian.epsb.ca,7804622627,7804629322,millwoodschristian@epsb.ca,"Elementary, Junior, Senior","Regular Program (K-12), Advanced Placement (10-12), Faith Based (K-12)",7909,Grade 10 to Grade 12,53.467756000000001,-113.408395,"(53.467756, -113.408395)"
Minchau,3615 Mill Woods Road East NW,T6L5X2,I,http://minchau.epsb.ca,7804610616,7804610837,minchau@epsb.ca,Elementary,"Regular Program (K-6), Strategies (2-6)",7274,Kindergarten to Grade 6,53.469571999999999,-113.361796,"(53.469572, -113.361796)"
Montrose,11931 62 Street NW,T5W4C7,D,http://montrose.epsb.ca,7804712358,7804772881,montrose@epsb.ca,Elementary,"Regular Program (K-6), Behaviour & Learning Assistance (1-6)",7151,Kindergarten to Grade 6,53.572441599999998,-113.4368065,"(53.5724416, -113.4368065)"
Mount Pleasant,10541 60A Avenue NW,T6H1K4,F,http://mountpleasant.epsb.ca,7804346766,7804358891,mpleasant@epsb.ca,Elementary,Cogito (K-6),7524,Kindergarten to Grade 6,53.496306300000001,-113.5009857,"(53.4963063, -113.5009857)"
Mount Royal,11303 55 Street NW,T5W3P6,D,http://mountroyalvirginiapark.epsb.ca,7804778202,7804714621,mountroyal@epsb.ca,Elementary,Arts Core (K-6),7153,Kindergarten to Grade 6,53.5688605,-113.4261183,"(53.5688605, -113.4261183)"
Northmount,14020 88A Street NW,T5E3J4,A,http://northmount.epsb.ca,7804755162,7804765116,northmount@epsb.ca,Elementary,"Regular Program (K-6), Cogito (K-5)",7191,Kindergarten to Grade 6,53.603139499999997,-113.4761547,"(53.6031395, -113.4761547)"
Norwood,9520 111 Avenue NW,T5G0A6,D,http://norwood.epsb.ca,7804771002,7804741378,norwood@epsb.ca,Elementary,"Regular Program (K-6), Early Learning (Ages 3.5-4.5)",7156,Kindergarten to Grade 6,53.559708999999998,-113.4880879,"(53.559709, -113.4880879)"
Old Scona,10523 84 Avenue NW,T6E2H5,F,http://oldscona.epsb.ca,7804330627,7804334994,oldscona@epsb.ca,Senior,"Academic Alternative (10-12),International Baccalaureate Certificate (10-12), International Baccalaureate Diploma (10-12)",7066,Grade 10 to Grade 12,53.520034699999997,-113.5011332,"(53.5200347, -113.5011332)"
Oliver,10227 118 Street NW,T5K2V4,F,http://oliver.epsb.ca,7804881221,7804881189,oliver@epsb.ca,"Elementary, Junior","Regular Program (K-6), Nellie McClung (7-9)",7527,Kindergarten to Grade 6,53.543466799999997,-113.52494350000001,"(53.5434668, -113.5249435)"
Ormsby,6323 184 Street NW,T5T3K1,E,http://ormsby.epsb.ca,7804814646,7804814686,ormsby@epsb.ca,Elementary,"Regular Program (K-6), Strategies (2-6)",7248,Kindergarten to Grade 6,53.497954200000002,-113.63968610000001,"(53.4979542, -113.6396861)"
Ottewell,9435 73 Street NW,T6B2A9,G,http://ottewell.epsb.ca,7804667331,7804655674,ottewell@epsb.ca,Junior,"Regular Program (7-9), Challenge (7-9), Chinese (Mandarin) Bilingual (7-9), Community Learning Skills (7-9), Community Learning Skills/Behavioural & Learning Assistance (7-9)",7528,Grade 7 to Grade 9,53.531730600000003,-113.4398956,"(53.5317306, -113.4398956)"
Overlanders,1150 Hermitage Road NW,T5A4L4,B,http://overlanders.epsb.ca,7804763361,7804750414,overlanders@epsb.ca,Elementary,"Regular Program (K-6), Opportunity (4-6)",7229,Kindergarten to Grade 6,53.580933799999997,-113.3893858,"(53.5809338, -113.3893858)"
Parkallen,6703 112 Street NW,T6H3J9,F,http://parkallen.epsb.ca,7804348503,7804348505,parkallen@epsb.ca,Elementary,"Regular Program (K-6), Chinese (Mandarin) Bilingual (K-1), Opportunity (1-6)",7529,Kindergarten to Grade 6,53.503895800000002,-113.52004549999999,"(53.5038958, -113.5200455)"
Parkview,14313 92 Avenue NW,T5R5B3,C,http://parkview.epsb.ca,7804833415,7804892192,parkview@epsb.ca,"Elementary, Junior","Regular Program (K-9), Chinese (Mandarin) Bilingual (7-9), Interactions (7-9), Pre-Advanced Placement (7-9)",7531,Kindergarten to Grade 9,53.527296,-113.5674758,"(53.527296, -113.5674758)"
Patricia Heights,16216 78 Avenue NW,T5R3E6,E,http://patheights.epsb.ca,7804870550,7804895718,patriciaheights@epsb.ca,Elementary,Regular Program (K-6),7176,Kindergarten to Grade 6,53.5105316,-113.6035049,"(53.5105316, -113.6035049)"
Pollard Meadows,1751 48 Street NW,T6L3J6,I,http://pollardmeadows.epsb.ca,7804638680,7804627390,pollard@epsb.ca,Elementary,"Regular Program (K-6), Cogito (K-6)",7258,Kindergarten to Grade 6,53.447270899999999,-113.41314269999999,"(53.4472709, -113.4131427)"
Prince Charles,12325 127 Street NW,T5L0Z9,C,http://princecharles.epsb.ca,7804555533,7804531525,pcharles@epsb.ca,Elementary,"Regular Program (K-6), Awasis (Cree) (K-6)",7161,Kindergarten to Grade 6,53.578152099999997,-113.5411811,"(53.5781521, -113.5411811)"
Princeton,7720 130 Avenue NW,T5C1Y2,B,http://princeton.epsb.ca,7804762344,7804480377,princeton@epsb.ca,Elementary,"Regular Program (K-6), Interactions (1-6)",7187,Kindergarten to Grade 6,53.589175500000003,-113.4591788,"(53.5891755, -113.4591788)"
Queen Alexandra,7730 106 Street NW,T6E4W3,F,http://queenalexandra.epsb.ca,7804392516,7804335510,queenalexandra@epsb.ca,Elementary,Logos Christian (K-6),7164,Kindergarten to Grade 6,53.513316099999997,-113.5036011,"(53.5133161, -113.5036011)"
Queen Elizabeth,9425 132 Avenue NW,T5E0Y4,A,http://queene.epsb.ca,7804768671,7804788638,queene@epsb.ca,Senior,"Regular Program (10-12), Advanced Placement (10-12), Arabic Bilingual (10-12), Individual Support (7-12)",7052,Grade 10 to Grade 12,53.592069700000003,-113.4877776,"(53.5920697, -113.4877776)"
Richard Secord,4025 117 Street NW,T6J1T4,H,http://richardsecord.epsb.ca,7804369839,7804321319,richardsecord@epsb.ca,Elementary,"Regular Program (K-6), Cogito (K-6), French Immersion (K-6)",7201,Kindergarten to Grade 6,53.4769991,-113.53513700000001,"(53.4769991, -113.535137)"
Rideau Park,10605 42 Avenue NW,T6J3Z9,H,http://rideaupark.epsb.ca,7804370010,7804309898,rideaupark@epsb.ca,Elementary,"Regular Program (K-6), German Bilingual (K-6), Interactions (1-3)",7232,Kindergarten to Grade 6,53.478793199999998,-113.5045135,"(53.4787932, -113.5045135)"
Rio Terrace,7608 154 Street NW,T5R1R7,E,http://rioterrace.epsb.ca,7804816866,7804845207,rioterrace@epsb.ca,Elementary,"French Immersion (K-6), German Bilingual (K-6), Strategies - French Immersion (3-6)",7211,Kindergarten to Grade 6,53.509569499999998,-113.58589980000001,"(53.5095695, -113.5858998)"
Riverbend,14820 53 Avenue NW,T6H4C6,F,http://riverbend.epsb.ca,7804347914,7804389406,riverbend@epsb.ca,Junior,"Regular Program (7-9), Challenge (7-9)",7538,Grade 7 to Grade 9,53.490434100000002,-113.5759613,"(53.4904341, -113.5759613)"
Riverdale,8901 101 Avenue NW,T5H0B1,D,http://riverdale.epsb.ca,7804257600,7804232799,riverdale@epsb.ca,Elementary,Regular Program (K-6),7168,Kindergarten to Grade 6,53.543706499999999,-113.4683927,"(53.5437065, -113.4683927)"
R. J. Scott,11610 38 Street NW,T5W2H1,D,http://abbott.epsb.ca,7804772897,7804793008,rjscott@epsb.ca,Elementary,Regular Program (K-6),7169,Kindergarten to Grade 6,53.569410900000001,-113.399973,"(53.5694109, -113.399973)"
Rosslyn,13215 113A Street NW,T5E5B9,A,http://rosslyn.epsb.ca,7804531576,7804557605,rosslyn@epsb.ca,Junior,"Regular Program (7-9), Behaviour & Learning Assistance (7-9), Behaviour & Learning Assistance/Opportunity (7-9), Chinese (Mandarin) Bilingual (7-9), Interactions (7-9), Pre-Advanced Placement (7-9)",7535,Grade 7 to Grade 9,53.5923631,-113.51645019999999,"(53.5923631, -113.5164502)"
Ross Sheppard,13546 111 Avenue NW,T5M2P2,C,http://shep.epsb.ca,7804485000,7804527563,rsheppard@epsb.ca,Senior,"Regular Program (10-12), Chinese (Mandarin) Bilingual (10-12), Community Learning Skills (10-12), French Immersion (10-12), Interactions (10-12), IB Certificate (10-12), IB Diploma (10-12), Sports Alternative (10-12)",7053,Grade 10 to Grade 12,53.558974900000003,-113.5581687,"(53.5589749, -113.5581687)"
Rundle,11005 34 Street NW,T5W1Y7,D,http://rundle.epsb.ca,7804716100,7804746825,rundle@epsb.ca,Elementary,"Regular Program (K-6), Behaviour & Learning Assistance (1-6)",7196,Kindergarten to Grade 6,53.5632327,-113.39369050000001,"(53.5632327, -113.3936905)"
Rutherford,8620 91 Street NW,T6C3N2,G,http://rutherford.epsb.ca,7804662891,7804682254,rutherford@epsb.ca,Elementary,Regular Program (K-6),7170,Kindergarten to Grade 6,53.522110099999999,-113.4674519,"(53.5221101, -113.4674519)"
Sakaw,5730 11A Avenue NW,T6L3A9,I,http://sakaw.epsb.ca,7804631854,7804632076,sakaw@epsb.ca,Elementary,"Regular Program (K-6), Early Learning (Ages 3.5 to 4.5), Opportunity (1-6)",7251,Kindergarten to Grade 6,53.440471600000002,-113.4278982,"(53.4404716, -113.4278982)"
Satoo,8515 17 Avenue NW,T6K2C7,I,http://satoo.epsb.ca,7804625125,7804622274,satoo@epsb.ca,Elementary,"Regular Program (K-6), Behaviour & Learning Assistance (1-6)",7235,Kindergarten to Grade 6,53.4473056,-113.4596763,"(53.4473056, -113.4596763)"
S. Bruce Smith,5545 184 Street NW,T6M2L9,E,http://sbs.epsb.ca,7804444946,7804447776,sbsmith@epsb.ca,Junior,"Regular Program (7-9), Opportunity (7-9), Pre-Advanced Placement (7-9), Strategies (7-9)",7571,Grade 7 to Grade 9,53.491297299999999,-113.6403808,"(53.4912973, -113.6403808)"
Scott Robertson,13515 107 Street NW,T5E4W3,A,http://scottrobertson.epsb.ca,7804753565,7804729235,srobertson@epsb.ca,Elementary,"Regular Program (K-6), Early Education (Ages 2.5-4.5), Individual Support (1-6)",7171,Kindergarten to Grade 6,53.595791400000003,-113.5050586,"(53.5957914, -113.5050586)"
Sherwood,9550 152 Street NW,T5P0B9,C,http://sherwood.epsb.ca,7804892600,7804819127,sherwood@epsb.ca,Elementary,"Regular Program (K-6), Opportunity (1-6)",7212,Kindergarten to Grade 6,53.532331800000001,-113.5833298,"(53.5323318, -113.5833298)"
Sifton,4305 134 Avenue NW,T5A3R5,B,http://sifton.epsb.ca,7804767953,7804784790,sifton@epsb.ca,Elementary,"Regular Program (K-6), Behaviour & Learning Assistance (1-6), Early Learning (Ages 3.5-4.5)",7238,Kindergarten to Grade 6,53.594736900000001,-113.4084869,"(53.5947369, -113.4084869)"
Spruce Avenue,11424 102 Street NW,T5G2E7,D,http://spruceavenue.epsb.ca,7804790155,7804798523,spruceave@epsb.ca,"Elementary, Junior","Regular Program (7-9), Behaviour & Learning Assistance (7-9), Literacy (7-9)",7537,Grade 7 to Grade 9,53.565719100000003,-113.49557830000001,"(53.5657191, -113.4955783)"
Steele Heights,14607 59 Street NW,T5A1Y3,B,http://steeleht.epsb.ca,7804785319,7804737755,steele@epsb.ca,Junior,"Regular Program (7-9), Behaviour & Learning Assistance (7-9), Challenge (7-9), Strategies (7-9)",7532,Grade 7 to Grade 9,53.609352000000001,-113.4319263,"(53.609352, -113.4319263)"
Steinhauer,10717 32A Avenue NW,T6J4A6,H,http://steinhauer.epsb.ca,7804371080,7804385413,steinhauer@epsb.ca,Elementary,"Regular Program (K-6), Behaviour & Learning Assistance (4-6), Literacy (4-6)",7241,Kindergarten to Grade 6,53.464688000000002,-113.506579,"(53.464688, -113.506579)"
Stratford,8715 153 Street NW,T5R1P1,C,http://stratford.epsb.ca,7804843381,7804892972,stratford@epsb.ca,"Elementary, Junior",Cogito (K-9),7553,Kindergarten to Grade 9,53.521024199999999,-113.5850331,"(53.5210242, -113.5850331)"
Strathcona,10450 72 Avenue NW,T6E0Z6,F,http://strathconaschool.ca,7804393957,7804320583,strathcona@epsb.ca,Senior,"Regular Program (10-12), Advanced Placement (10-12), Community Learning Skills/Behaviour and Learning Assistance (10-12), German Bilingual (10-12)",7054,Grade 10 to Grade 12,53.508378100000002,-113.50151769999999,"(53.5083781, -113.5015177)"
Sweet Grass,11351 31 Avenue NW,T6J4T6,H,http://sweetgrass.epsb.ca,7804370367,7804377221,sweetgrass@epsb.ca,Elementary,"Regular Program (K-6), International Spanish Academy (K-4)",7243,Kindergarten to Grade 6,53.463863099999998,-113.5281877,"(53.4638631, -113.5281877)"
Talmud Torah,6320 172 Street NW,T5T6H1,E,http://talmud.epsb.ca,7804879290,7804819790,talmudt@epsb.ca,"Elementary, Junior",Hebrew Bilingual (K-9),7911,Kindergarten to Grade 9,53.4993385,-113.6209867,"(53.4993385, -113.6209867)"
T. D. Baker,1750 Mill Woods Road East NW,T6L5C5,I,http://tdbaker.epsb.ca,7804625496,7804508560,tdbaker@epsb.ca,Junior,"Regular Program (7-9), Behaviour & Learning Assistance (7-9), Challenge (7-9), Interactions (7-9), Opportunity (7-9)",7570,Grade 7 to Grade 9,53.447439000000003,-113.405997,"(53.447439, -113.405997)"
Tevie Miller Heritage,6240 113 Street NW,T6H3L2,F,http://teviemillerheritage.epsb.ca,7804360465,7804360385,heritage@epsb.ca,Special,"Early Education (Ages 2.5 to 4.5), For students diagnosed with communication delays/disorders",7772,Grade 1 to Grade 6,53.500921699999999,-113.52341079999999,"(53.5009217, -113.5234108)"
Thorncliffe,8215 175 Street NW,T5T0G9,E,http://thorncliffe.epsb.ca,7804872061,7804445150,thorncliffe@epsb.ca,Elementary,"Regular Program (K-6), Behaviour & Learning Assistance (1-6)",7216,Kindergarten to Grade 6,53.515668699999999,-113.6232272,"(53.5156687, -113.6232272)"
Tipaskan,1200 Lakewood Road North NW,T6K4A3,I,http://tipaskan.epsb.ca,7804625031,7804635649,tipaskan@epsb.ca,Elementary,"Regular Program (K-6), Early Learning (Ages 3.5 to 4.5), Interactions (1-6)",7270,Kindergarten to Grade 6,53.463330200000001,-113.4569195,"(53.4633302, -113.4569195)"
Transitions at the Y,10211 105 Street NW,T5J1E3,F,http://outreach.epsb.ca,7804295737,7803772483,transitions.at.y@epsb.ca,Special,"The program serves students who are generally behind in their academics and have inconsistent attendance, as well as pregnant and parenting teens and fourth and fifth year high school students.",325,Special,53.543202000000001,-113.501,"(53.543202, -113.501)"
Velma E. Baker,2845 43A Avenue NW,T6T1J9,G,http://velmaebaker.epsb.ca,7804404088,7804651275,vebaker@epsb.ca,Elementary,Regular Program (K-6),7280,Kindergarten to Grade 6,53.480175899999999,-113.3878124,"(53.4801759, -113.3878124)"
Vernon Barford,32 Fairway Drive NW,T6J2C1,H,http://vbarford.epsb.ca,7804132211,7804344467,vbarford@epsb.ca,Junior,"Regular Program (7-9), Challenge Program (7-9), Literacy (7-9)",7557,Grade 7 to Grade 9,53.472987000000003,-113.5428421,"(53.472987, -113.5428421)"
Victoria,10210 108 Avenue NW,T5H1A8,D,http://victoria-school.ca,7804263010,7804988727,victoria@epsb.ca,"Elementary, Junior, Senior","Regular Program (10-12), IB Primary Years (K-6), IB Middle Years (7-9), IB Certifice (10-12), IB Diploma (10-12), Performing and Visual Arts (K-12)",7055,Kindergarten to Grade 12,53.553022200000001,-113.49576620000001,"(53.5530222, -113.4957662)"
Vimy Ridge Academy,8205 90 Avenue NW,T6C1N8,G,http://vimyridge.epsb.ca,7804655461,7804691198,vimyridge@epsb.ca,"Junior, Senior","Dance (in affiliation with the Edmonton School of Ballet) (7-12), Individual Support (10-12), Sports Alternative (7-12)",7050,Grade 7 to Grade 12,53.5251649,-113.4550876,"(53.5251649, -113.4550876)"
Virginia Park,7324 109 Avenue NW,T5B0A1,D,http://virginiapark.epsb.ca,7804778152,7804791615,virgina@epsb.ca,Elementary,Arts Core (K-6),7177,Kindergarten to Grade 6,53.559766199999999,-113.4495829,"(53.5597662, -113.4495829)"
Waverley,6825 89 Avenue NW,T6B0N3,G,http://waverley.epsb.ca,7804696682,7804653219,waverley@epsb.ca,Elementary,"Regular Program (K-6), Early Education (Ages 2.5 to 4.5)",7189,Kindergarten to Grade 6,53.524254300000003,-113.4325504,"(53.5242543, -113.4325504)"
Weinlos,2911 48 Street NW,T6L5T7,I,http://weinlos.epsb.ca,7804625261,7804613136,weinlos@epsb.ca,Elementary,"Regular Program (K-6), Behaviour & Learning Assistance (1-6), Opportunity (1-6)",7265,Kindergarten to Grade 6,53.460895600000001,-113.41675650000001,"(53.4608956, -113.4167565)"
Westbrook,11915 40 Avenue NW,T6J0S1,H,http://westbrook.epsb.ca,7804384200,7804377110,westbrook@epsb.ca,Elementary,"Regular Program (K-6), Challenge (1-6)",7197,Kindergarten to Grade 6,53.476342799999998,-113.5398337,"(53.4763428, -113.5398337)"
Westglen,10950 127 Street NW,T5M0S7,C,http://westglen.epsb.ca,7804543449,7804543281,westglen@epsb.ca,Elementary,"Regular Program (K-5), International Baccalaureate Middle Years (6)",7542,Kindergarten to Grade 6,53.5554834,-113.5411726,"(53.5554834, -113.5411726)"
Westlawn,9520 165 Street NW,T5P3S4,C,http://westlawn.epsb.ca,7804843456,7804876647,westlawn@epsb.ca,Junior,"Regular Program (7-9), Behaviour & Learning Assistance (7-9), Individual Support (7-9), Strategies (7-9)",7545,Grade 7 to Grade 9,53.5319061,-113.6072838,"(53.5319061, -113.6072838)"
Westminster,13712 104 Avenue NW,T5N0W4,C,http://westminster.epsb.ca,7804524343,7804513866,westminster@epsb.ca,Junior,"Regular Program (7-9), Behaviour & Learning Assistance (7-9), International Baccalaureate Middle Years (7-9), Strategies (7-9)",7543,Grade 7 to Grade 9,53.546214300000003,-113.5580889,"(53.5462143, -113.5580889)"
Westmount,11124 130 Street NW,T5M0J2,C,http://westmount.epsb.ca,7804528350,7804515569,westmount@epsb.ca,Junior,"Regular Program (7-9), Opportunity (7-9)",7544,Grade 7 to Grade 9,53.559302700000003,-113.5462473,"(53.5593027, -113.5462473)"
Windsor Park,8720 118 Street NW,T6G1T5,F,http://windsorpark.epsb.ca,7804333924,7804338523,windsor@epsb.ca,Elementary,Regular Program (K-6),7182,Kindergarten to Grade 6,53.524310499999999,-113.534317,"(53.5243105, -113.534317)"
Winterburn,9527 Winterburn Road NW,T5T5X9,C,http://winterburn.epsb.ca,7804473566,7804472403,winterburn@epsb.ca,"Elementary, Junior",Regular Program (K-9),7569,Kindergarten to Grade 9,53.533784500000003,-113.6889359,"(53.5337845, -113.6889359)"
W. P. Wagner,6310 Wagner Road NW,T6E4N5,G,http://wpwagner.epsb.ca,7804691315,7804666748,wpwagner@epsb.ca,Senior,"Regular Program (10-12), Advanced Placement (10-12), Interactions (10-12), Sports Alternative (10-12)",7057,Grade 10 to Grade 12,53.499326600000003,-113.4494627,"(53.4993266, -113.4494627)"
York,13915 61 Street NW,T5A1P3,B,http://york.epsb.ca,7804766336,7804723512,york@epsb.ca,Elementary,"Regular Program (K-6), Challenge (1-6)",7198,Kindergarten to Grade 6,53.601528899999998,-113.4355371,"(53.6015289, -113.4355371)"
Youngstown,10330 163 Street NW,T5P3N5,C,http://youngstown.epsb.ca,7804894600,7804891117,youngstown@epsb.ca,Elementary,"Regular Program (K-6), Logos Christian (K-6), Early Learning (Ages 3.5-4.5)",7213,Kindergarten to Grade 6,53.545364800000002,-113.60265699999999,"(53.5453648, -113.602657)"
